{
  "type": "FeatureCollection",
  "features": [
    {
      "type": "Feature",
      "properties": {
        "norad_id": 66397,
        "name": "STARLINK-35510",
        "group": "last-30-days",
        "lat": 33.43177252848613,
        "lon": 73.43146174284622,
        "alt_km": 442.5502398449171,
        "timestamp": "2025-12-08T17:43:03.630718+00:00",
        "meta_object_name": "STARLINK-35510",
        "meta_object_id": "2025-257T",
        "meta_epoch": "2025-12-08T06:00:02.999808",
        "meta_mean_motion": 15.39556189,
        "meta_eccentricity": 0.00012412,
        "meta_inclination": 53.1598,
        "meta_ra_of_asc_node": 285.3987,
        "meta_arg_of_pericenter": 75.0881,
        "meta_mean_anomaly": 233.9012,
        "meta_ephemeris_type": 0,
        "meta_classification_type": "U",
        "meta_norad_cat_id": 66397,
        "meta_element_set_no": 999,
        "meta_rev_at_epoch": 577,
        "meta_bstar": 0.0021839096,
        "meta_mean_motion_dot": 0.00087782,
        "meta_mean_motion_ddot": 0,
        "tle_line1": "1 66397U 25257T   25342.25003472  .00087782  00000+0  21839-2 0  9997",
        "tle_line2": "2 66397  53.1598 285.3987 0001241  75.0881 233.9012 15.39556189  5774"
      },
      "geometry": {
        "type": "Point",
        "coordinates": [
          73.43146174284622,
          33.43177252848613
        ]
      }
    },
    {
      "type": "Feature",
      "properties": {
        "norad_id": 66398,
        "name": "STARLINK-35642",
        "group": "last-30-days",
        "lat": 14.163712865207229,
        "lon": 92.13959788886713,
        "alt_km": 446.0056378116924,
        "timestamp": "2025-12-08T17:43:03.630734+00:00",
        "meta_object_name": "STARLINK-35642",
        "meta_object_id": "2025-257U",
        "meta_epoch": "2025-12-08T06:00:02.999808",
        "meta_mean_motion": 15.39540882,
        "meta_eccentricity": 0.00016158,
        "meta_inclination": 53.1597,
        "meta_ra_of_asc_node": 285.3469,
        "meta_arg_of_pericenter": 73.3132,
        "meta_mean_anomaly": 261.3716,
        "meta_ephemeris_type": 0,
        "meta_classification_type": "U",
        "meta_norad_cat_id": 66398,
        "meta_element_set_no": 999,
        "meta_rev_at_epoch": 577,
        "meta_bstar": 0.0025106442,
        "meta_mean_motion_dot": 0.00101102,
        "meta_mean_motion_ddot": 0,
        "tle_line1": "1 66398U 25257U   25342.25003472  .00101102  00000+0  25106-2 0  9992",
        "tle_line2": "2 66398  53.1597 285.3469 0001615  73.3132 261.3716 15.39540882  5773"
      },
      "geometry": {
        "type": "Point",
        "coordinates": [
          92.13959788886713,
          14.163712865207229
        ]
      }
    },
    {
      "type": "Feature",
      "properties": {
        "norad_id": 66399,
        "name": "STARLINK-35657",
        "group": "last-30-days",
        "lat": 32.151704233489845,
        "lon": 74.97829814028277,
        "alt_km": 442.3690969442505,
        "timestamp": "2025-12-08T17:43:03.630746+00:00",
        "meta_object_name": "STARLINK-35657",
        "meta_object_id": "2025-257V",
        "meta_epoch": "2025-12-08T06:00:02.999808",
        "meta_mean_motion": 15.39560012,
        "meta_eccentricity": 0.00013735,
        "meta_inclination": 53.1597,
        "meta_ra_of_asc_node": 285.3944,
        "meta_arg_of_pericenter": 106.8457,
        "meta_mean_anomaly": 203.9701,
        "meta_ephemeris_type": 0,
        "meta_classification_type": "U",
        "meta_norad_cat_id": 66399,
        "meta_element_set_no": 999,
        "meta_rev_at_epoch": 577,
        "meta_bstar": 0.0020744802,
        "meta_mean_motion_dot": 0.00083325,
        "meta_mean_motion_ddot": 0,
        "tle_line1": "1 66399U 25257V   25342.25003472  .00083325  00000+0  20745-2 0  9993",
        "tle_line2": "2 66399  53.1597 285.3944 0001373 106.8457 203.9701 15.39560012  5778"
      },
      "geometry": {
        "type": "Point",
        "coordinates": [
          74.97829814028277,
          32.151704233489845
        ]
      }
    },
    {
      "type": "Feature",
      "properties": {
        "norad_id": 66400,
        "name": "STARLINK-35667",
        "group": "last-30-days",
        "lat": -6.376565290900593,
        "lon": 107.79997159024276,
        "alt_km": 450.82004585315553,
        "timestamp": "2025-12-08T17:43:03.630758+00:00",
        "meta_object_name": "STARLINK-35667",
        "meta_object_id": "2025-257W",
        "meta_epoch": "2025-12-08T06:00:02.999808",
        "meta_mean_motion": 15.41464165,
        "meta_eccentricity": 9.776e-05,
        "meta_inclination": 53.1599,
        "meta_ra_of_asc_node": 285.297,
        "meta_arg_of_pericenter": 81.2106,
        "meta_mean_anomaly": 278.088,
        "meta_ephemeris_type": 0,
        "meta_classification_type": "U",
        "meta_norad_cat_id": 66400,
        "meta_element_set_no": 999,
        "meta_rev_at_epoch": 577,
        "meta_bstar": -0.059896703,
        "meta_mean_motion_dot": -0.02277867,
        "meta_mean_motion_ddot": 0,
        "tle_line1": "1 66400U 25257W   25342.25003472 -.02277867  00000+0 -59897-1 0  9995",
        "tle_line2": "2 66400  53.1599 285.2970 0000977  81.2106 278.0880 15.41464165  5773"
      },
      "geometry": {
        "type": "Point",
        "coordinates": [
          107.79997159024276,
          -6.376565290900593
        ]
      }
    },
    {
      "type": "Feature",
      "properties": {
        "norad_id": 66401,
        "name": "STARLINK-35668",
        "group": "last-30-days",
        "lat": -7.839281567866165,
        "lon": 108.91494110846062,
        "alt_km": 450.8722968230122,
        "timestamp": "2025-12-08T17:43:03.630770+00:00",
        "meta_object_name": "STARLINK-35668",
        "meta_object_id": "2025-257X",
        "meta_epoch": "2025-12-08T06:00:02.999808",
        "meta_mean_motion": 15.414455,
        "meta_eccentricity": 0.00010976,
        "meta_inclination": 53.16,
        "meta_ra_of_asc_node": 285.2933,
        "meta_arg_of_pericenter": 83.4453,
        "meta_mean_anomaly": 277.7019,
        "meta_ephemeris_type": 0,
        "meta_classification_type": "U",
        "meta_norad_cat_id": 66401,
        "meta_element_set_no": 999,
        "meta_rev_at_epoch": 577,
        "meta_bstar": -0.059389507,
        "meta_mean_motion_dot": -0.02259384,
        "meta_mean_motion_ddot": 0,
        "tle_line1": "1 66401U 25257X   25342.25003472 -.02259384  00000+0 -59390-1 0  9998",
        "tle_line2": "2 66401  53.1600 285.2933 0001097  83.4453 277.7019 15.41445500  5771"
      },
      "geometry": {
        "type": "Point",
        "coordinates": [
          108.91494110846062,
          -7.839281567866165
        ]
      }
    },
    {
      "type": "Feature",
      "properties": {
        "norad_id": 66402,
        "name": "STARLINK-35644",
        "group": "last-30-days",
        "lat": 12.664387982223252,
        "lon": 93.34305357191342,
        "alt_km": 445.9862326744851,
        "timestamp": "2025-12-08T17:43:03.630781+00:00",
        "meta_object_name": "STARLINK-35644",
        "meta_object_id": "2025-257Y",
        "meta_epoch": "2025-12-08T06:00:02.999808",
        "meta_mean_motion": 15.39560335,
        "meta_eccentricity": 0.00013944,
        "meta_inclination": 53.1597,
        "meta_ra_of_asc_node": 285.3428,
        "meta_arg_of_pericenter": 90.9401,
        "meta_mean_anomaly": 245.635,
        "meta_ephemeris_type": 0,
        "meta_classification_type": "U",
        "meta_norad_cat_id": 66402,
        "meta_element_set_no": 999,
        "meta_rev_at_epoch": 577,
        "meta_bstar": 0.0019906414,
        "meta_mean_motion_dot": 0.00079906,
        "meta_mean_motion_ddot": 0,
        "tle_line1": "1 66402U 25257Y   25342.25003472  .00079906  00000+0  19906-2 0  9995",
        "tle_line2": "2 66402  53.1597 285.3428 0001394  90.9401 245.6350 15.39560335  5776"
      },
      "geometry": {
        "type": "Point",
        "coordinates": [
          93.34305357191342,
          12.664387982223252
        ]
      }
    },
    {
      "type": "Feature",
      "properties": {
        "norad_id": 66403,
        "name": "STARLINK-35602",
        "group": "last-30-days",
        "lat": -24.796107460977368,
        "lon": 123.21193275833932,
        "alt_km": 444.0688696226116,
        "timestamp": "2025-12-08T17:43:03.630792+00:00",
        "meta_object_name": "STARLINK-35602",
        "meta_object_id": "2025-257Z",
        "meta_epoch": "2025-12-08T06:00:02.999808",
        "meta_mean_motion": 15.4416858,
        "meta_eccentricity": 7.575e-05,
        "meta_inclination": 53.1592,
        "meta_ra_of_asc_node": 285.2597,
        "meta_arg_of_pericenter": 97.7131,
        "meta_mean_anomaly": 280.2938,
        "meta_ephemeris_type": 0,
        "meta_classification_type": "U",
        "meta_norad_cat_id": 66403,
        "meta_element_set_no": 999,
        "meta_rev_at_epoch": 577,
        "meta_bstar": -0.049966119,
        "meta_mean_motion_dot": -0.02066287,
        "meta_mean_motion_ddot": 0,
        "tle_line1": "1 66403U 25257Z   25342.25003472 -.02066287  00000+0 -49966-1 0  9996",
        "tle_line2": "2 66403  53.1592 285.2597 0000757  97.7131 280.2938 15.44168580  5774"
      },
      "geometry": {
        "type": "Point",
        "coordinates": [
          123.21193275833932,
          -24.796107460977368
        ]
      }
    }
  ]
}